{"type": "FeatureCollection", "features": [ {"type": "Feature", "properties": {"norad_id": 30845, "name": "FENGYUN 1C DEB", "group": "fengyun-1c-debris", "lat": -0.9238917338515672, "lon": -12.435558069032838, "alt_km": 972.8321312626349, "timestamp": "2025-12-12T20:43:07.314118+00:00", "meta": {"OBJECT_NAME": "FENGYUN 1C DEB", "OBJECT_ID": "1999-025AWF", "EPOCH": "2025-12-11T06:27:32.164992", "MEAN_MOTION": 13.76856445, "ECCENTRICITY": 0.01920352, "INCLINATION": 98.3792, "RA_OF_ASC_NODE": 346.0224, "ARG_OF_PERICENTER": 274.5083, "MEAN_ANOMALY": 105.0549, "EPHEMERIS_TYPE": 0, "CLASSIFICATION_TYPE": "U", "NORAD_CAT_ID": 30845, "ELEMENT_SET_NO": 999, "REV_AT_EPOCH": 94223, "BSTAR": 0.00054802614, "MEAN_MOTION_DOT": 5.8e-06, "MEAN_MOTION_DDOT": 0}, "tle": {"line1": "1 30845U 99025AWF 25345.26912228  .00000580  00000+0  54803-3 0  9991", "line2": "2 30845  98.3792 346.0224 0192035 274.5083 105.0549 13.76856445942233"}}, "geometry": {"type": "Point", "coordinates": [-12.435558069032838, -0.9238917338515672]}}, {"type": "Feature", "properties": {"norad_id": 30846, "name": "FENGYUN 1C DEB", "group": "fengyun-1c-debris", "lat": -60.995150888301495, "lon": -37.14832518713283, "alt_km": 762.8243164516307, "timestamp": "2025-12-12T20:43:07.314129+00:00", "meta": {"OBJECT_NAME": "FENGYUN 1C DEB", "OBJECT_ID": "1999-025AWG", "EPOCH": "2025-12-11T10:33:41.521824", "MEAN_MOTION": 14.41533792, "ECCENTRICITY": 0.00540308, "INCLINATION": 99.321, "RA_OF_ASC_NODE": 158.5318, "ARG_OF_PERICENTER": 340.2812, "MEAN_ANOMALY": 81.0151, "EPHEMERIS_TYPE": 0, "CLASSIFICATION_TYPE": "U", "NORAD_CAT_ID": 30846, "ELEMENT_SET_NO": 999, "REV_AT_EPOCH": 97911, "BSTAR": 0.0014276242, "MEAN_MOTION_DOT": 4.671e-05, "MEAN_MOTION_DDOT": 0}, "tle": {"line1": "1 30846U 99025AWG 25345.44006391  .00004671  00000+0  14276-2 0  9991", "line2": "2 30846  99.3210 158.5318 0054030 340.2812  81.0151 14.41533792979112"}}, "geometry": {"type": "Point", "coordinates": [-37.14832518713283, -60.995150888301495]}}, {"type": "Feature", "properties": {"norad_id": 30847, "name": "FENGYUN 1C DEB", "group": "fengyun-1c-debris", "lat": -55.40838377482653, "lon": 159.89105265620987, "alt_km": 799.3557308413692, "timestamp": "2025-12-12T20:43:07.314140+00:00", "meta": {"OBJECT_NAME": "FENGYUN 1C DEB", "OBJECT_ID": "1999-025AWH", "EPOCH": "2025-12-11T21:58:43.061952", "MEAN_MOTION": 14.17011578, "ECCENTRICITY": 0.0065392, "INCLINATION": 98.732, "RA_OF_ASC_NODE": 146.0839, "ARG_OF_PERICENTER": 330.5671, "MEAN_ANOMALY": 182.6666, "EPHEMERIS_TYPE": 0, "CLASSIFICATION_TYPE": "U", "NORAD_CAT_ID": 30847, "ELEMENT_SET_NO": 999, "REV_AT_EPOCH": 96043, "BSTAR": 0.0029051, "MEAN_MOTION_DOT": 5.923e-05, "MEAN_MOTION_DDOT": 0}, "tle": {"line1": "1 30847U 99025AWH 25345.91577618  .00005923  00000+0  29051-2 0  9997", "line2": "2 30847  98.7320 146.0839 0065392 330.5671 182.6666 14.17011578960436"}}, "geometry": {"type": "Point", "coordinates": [159.89105265620987, -55.40838377482653]}}, {"type": "Feature", "properties": {"norad_id": 30848, "name": "FENGYUN 1C DEB", "group": "fengyun-1c-debris", "lat": 51.74211985922672, "lon": 170.0312512151441, "alt_km": 764.9409394280183, "timestamp": "2025-12-12T20:43:07.314151+00:00", "meta": {"OBJECT_NAME": "FENGYUN 1C DEB", "OBJECT_ID": "1999-025AWJ", "EPOCH": "2025-12-10T23:16:36.021504", "MEAN_MOTION": 14.34465563, "ECCENTRICITY": 0.00439038, "INCLINATION": 99.0599, "RA_OF_ASC_NODE": 179.7213, "ARG_OF_PERICENTER": 340.8768, "MEAN_ANOMALY": 19.0765, "EPHEMERIS_TYPE": 0, "CLASSIFICATION_TYPE": "U", "NORAD_CAT_ID": 30848, "ELEMENT_SET_NO": 999, "REV_AT_EPOCH": 97281, "BSTAR": 0.0017902216, "MEAN_MOTION_DOT": 5.054e-05, "MEAN_MOTION_DDOT": 0}, "tle": {"line1": "1 30848U 99025AWJ 25344.96986136  .00005054  00000+0  17902-2 0  9998", "line2": "2 30848  99.0599 179.7213 0043903 340.8768  19.0765 14.34465563972817"}}, "geometry": {"type": "Point", "coordinates": [170.0312512151441, 51.74211985922672]}}, {"type": "Feature", "properties": {"norad_id": 30849, "name": "FENGYUN 1C DEB", "group": "fengyun-1c-debris", "lat": 77.88568192584894, "lon": -85.20688098387944, "alt_km": 822.9597252801223, "timestamp": "2025-12-12T20:43:07.314161+00:00", "meta": {"OBJECT_NAME": "FENGYUN 1C DEB", "OBJECT_ID": "1999-025AWK", "EPOCH": "2025-12-12T03:28:00.592320", "MEAN_MOTION": 14.18852204, "ECCENTRICITY": 0.00480358, "INCLINATION": 99.0473, "RA_OF_ASC_NODE": 46.1311, "ARG_OF_PERICENTER": 8.0657, "MEAN_ANOMALY": 19.8137, "EPHEMERIS_TYPE": 0, "CLASSIFICATION_TYPE": "U", "NORAD_CAT_ID": 30849, "ELEMENT_SET_NO": 999, "REV_AT_EPOCH": 96364, "BSTAR": 0.001970316, "MEAN_MOTION_DOT": 4.103e-05, "MEAN_MOTION_DDOT": 0}, "tle": {"line1": "1 30849U 99025AWK 25346.14445130  .00004103  00000+0  19703-2 0  9990", "line2": "2 30849  99.0473  46.1311 0048035   8.0657  19.8137 14.18852204963642"}}, "geometry": {"type": "Point", "coordinates": [-85.20688098387944, 77.88568192584894]}}, {"type": "Feature", "properties": {"norad_id": 30850, "name": "FENGYUN 1C DEB", "group": "fengyun-1c-debris", "lat": 26.34786131849719, "lon": -151.83632802893993, "alt_km": 914.7626753123377, "timestamp": "2025-12-12T20:43:07.314171+00:00", "meta": {"OBJECT_NAME": "FENGYUN 1C DEB", "OBJECT_ID": "1999-025AWL", "EPOCH": "2025-12-11T04:29:27.221568", "MEAN_MOTION": 14.16266679, "ECCENTRICITY": 0.01092823, "INCLINATION": 98.3941, "RA_OF_ASC_NODE": 210.7767, "ARG_OF_PERICENTER": 202.3958, "MEAN_ANOMALY": 283.3506, "EPHEMERIS_TYPE": 0, "CLASSIFICATION_TYPE": "U", "NORAD_CAT_ID": 30850, "ELEMENT_SET_NO": 999, "REV_AT_EPOCH": 95776, "BSTAR": 0.0028131069, "MEAN_MOTION_DOT": 5.873e-05, "MEAN_MOTION_DDOT": 0}, "tle": {"line1": "1 30850U 99025AWL 25345.18712062  .00005873  00000+0  28131-2 0  9996", "line2": "2 30850  98.3941 210.7767 0109282 202.3958 283.3506 14.16266679957762"}}, "geometry": {"type": "Point", "coordinates": [-151.83632802893993, 26.34786131849719]}}, {"type": "Feature", "properties": {"norad_id": 30852, "name": "FENGYUN 1C DEB", "group": "fengyun-1c-debris", "lat": 9.264048236763927, "lon": 3.1738172597496344, "alt_km": 888.6031802446741, "timestamp": "2025-12-12T20:43:07.314181+00:00", "meta": {"OBJECT_NAME": "FENGYUN 1C DEB", "OBJECT_ID": "1999-025AWN", "EPOCH": "2025-12-12T07:03:07.668864", "MEAN_MOTION": 14.10283479, "ECCENTRICITY": 0.00558342, "INCLINATION": 98.7338, "RA_OF_ASC_NODE": 4.0576, "ARG_OF_PERICENTER": 235.8473, "MEAN_ANOMALY": 123.7396, "EPHEMERIS_TYPE": 0, "CLASSIFICATION_TYPE": "U", "NORAD_CAT_ID": 30852, "ELEMENT_SET_NO": 999, "REV_AT_EPOCH": 96376, "BSTAR": 0.00066416941, "MEAN_MOTION_DOT": 1.152e-05, "MEAN_MOTION_DDOT": 0}, "tle": {"line1": "1 30852U 99025AWN 25346.29383876  .00001152  00000+0  66417-3 0  9994", "line2": "2 30852  98.7338   4.0576 0055834 235.8473 123.7396 14.10283479963768"}}, "geometry": {"type": "Point", "coordinates": [3.1738172597496344, 9.264048236763927]}}, {"type": "Feature", "properties": {"norad_id": 30856, "name": "FENGYUN 1C DEB", "group": "fengyun-1c-debris", "lat": 4.031969366468122, "lon": -7.77083630844026, "alt_km": 711.3322522301478, "timestamp": "2025-12-12T20:43:07.314191+00:00", "meta": {"OBJECT_NAME": "FENGYUN 1C DEB", "OBJECT_ID": "1999-025AWS", "EPOCH": "2025-12-10T11:34:41.978784", "MEAN_MOTION": 14.46034305, "ECCENTRICITY": 0.00883899, "INCLINATION": 98.1998, "RA_OF_ASC_NODE": 169.3441, "ARG_OF_PERICENTER": 245.7679, "MEAN_ANOMALY": 143.5318, "EPHEMERIS_TYPE": 0, "CLASSIFICATION_TYPE": "U", "NORAD_CAT_ID": 30856, "ELEMENT_SET_NO": 999, "REV_AT_EPOCH": 96493, "BSTAR": 0.0081719665, "MEAN_MOTION_DOT": 0.00030659, "MEAN_MOTION_DDOT": 0}, "tle": {"line1": "1 30856U 99025AWS 25344.48243031  .00030659  00000+0  81720-2 0  9992", "line2": "2 30856  98.1998 169.3441 0088389 245.7679 143.5318 14.46034305964938"}}, "geometry": {"type": "Point", "coordinates": [-7.77083630844026, 4.031969366468122]}}, {"type": "Feature", "properties": {"norad_id": 30857, "name": "FENGYUN 1C DEB", "group": "fengyun-1c-debris", "lat": 11.372522149379577, "lon": -25.187154544439508, "alt_km": 715.1696035072227, "timestamp": "2025-12-12T20:43:07.314202+00:00", "meta": {"OBJECT_NAME": "FENGYUN 1C DEB", "OBJECT_ID": "1999-025AWT", "EPOCH": "2025-12-10T22:20:28.597056", "MEAN_MOTION": 14.51403304, "ECCENTRICITY": 0.0041899, "INCLINATION": 98.9745, "RA_OF_ASC_NODE": 334.5727, "ARG_OF_PERICENTER": 300.5616, "MEAN_ANOMALY": 59.1445, "EPHEMERIS_TYPE": 0, "CLASSIFICATION_TYPE": "U", "NORAD_CAT_ID": 30857, "ELEMENT_SET_NO": 999, "REV_AT_EPOCH": 96697, "BSTAR": 0.0076916, "MEAN_MOTION_DOT": 0.0003112, "MEAN_MOTION_DDOT": 0}, "tle": {"line1": "1 30857U 99025AWT 25344.93088654  .00031120  00000+0  76916-2 0  9996", "line2": "2 30857  98.9745 334.5727 0041899 300.5616  59.1445 14.51403304966970"}}, "geometry": {"type": "Point", "coordinates": [-25.187154544439508, 11.372522149379577]}}, {"type": "Feature", "properties": {"norad_id": 30858, "name": "FENGYUN 1C DEB", "group": "fengyun-1c-debris", "lat": -3.409049292973613, "lon": 45.02278618752234, "alt_km": 844.7477088249789, "timestamp": "2025-12-12T20:43:07.314212+00:00", "meta": {"OBJECT_NAME": "FENGYUN 1C DEB", "OBJECT_ID": "1999-025AWU", "EPOCH": "2025-12-11T19:38:31.170048", "MEAN_MOTION": 14.17778419, "ECCENTRICITY": 0.00308108, "INCLINATION": 98.7993, "RA_OF_ASC_NODE": 43.4592, "ARG_OF_PERICENTER": 112.4134, "MEAN_ANOMALY": 314.585, "EPHEMERIS_TYPE": 0, "CLASSIFICATION_TYPE": "U", "NORAD_CAT_ID": 30858, "ELEMENT_SET_NO": 999, "REV_AT_EPOCH": 96967, "BSTAR": 0.0005463452, "MEAN_MOTION_DOT": 1.076e-05, "MEAN_MOTION_DDOT": 0}, "tle": {"line1": "1 30858U 99025AWU 25345.81841632  .00001076  00000+0  54635-3 0  9990", "line2": "2 30858  98.7993  43.4592 0030810 112.4134 314.5850 14.17778419969678"}}, "geometry": {"type": "Point", "coordinates": [45.02278618752234, -3.409049292973613]}}]}